GLOBALSTAR M063         
1 26081U 00008A   24316.06362374 -.00000049  00000+0  49651-3 0  9993
2 26081  51.9971 326.0288 0004617 255.5554 119.0422 11.86161885131693
GLOBALSTAR M062         
1 26082U 00008B   24317.48124233 -.00000116  00000+0 -13020-3 0  9998
2 26082  51.9874  13.0418 0006819  12.4471   0.7581 12.43451053132166
GLOBALSTAR M060         
1 26083U 00008C   24316.27556571 -.00000106  00000+0 -14467-3 0  9994
2 26083  52.0031 305.7675 0003643  41.9932 331.2017 12.17645499125822
GLOBALSTAR M064         
1 26084U 00008D   24316.66148510 -.00000098  00000+0 -20409-3 0  9991
2 26084  52.0040  65.8428 0001291  29.4051 330.6854 11.88525675141340
GLOBALSTAR M065         
1 31571U 07020A   24316.88757774 -.00000114  00000+0 -58937-4 0  9998
2 31571  51.9876 167.6484 0009817 177.2268 196.0820 12.61978298806271
GLOBALSTAR M069         
1 31573U 07020C   24316.51203618 -.00000063  00000+0  23889-3 0  9992
2 31573  51.9923 126.5362 0001831  81.3863 293.7342 12.53304516807024
GLOBALSTAR M072         
1 31574U 07020D   24317.50586616 -.00000088  00000+0  58484-4 0  9992
2 31574  52.0076 218.5365 0000885  50.3573 131.4755 12.34772440805605
GLOBALSTAR M071         
1 31576U 07020F   24317.22591256 -.00000064  00000+0  22370-3 0  9997
2 31576  52.0044 127.5436 0001728  76.2821  94.9364 12.62263198807067
